[{"OBJECT_NAME":"STARLINK-3766","OBJECT_ID":"2022-041AM","EPOCH":"2026-03-09T19:13:41.018016","MEAN_MOTION":15.08840188,"ECCENTRICITY":0.0001405,"INCLINATION":53.2167,"RA_OF_ASC_NODE":98.6191,"ARG_OF_PERICENTER":90.4516,"MEAN_ANOMALY":269.6637,"EPHEMERIS_TYPE":0,"CLASSIFICATION_TYPE":"U","NORAD_CAT_ID":52296,"ELEMENT_SET_NO":999,"REV_AT_EPOCH":21452,"BSTAR":1.8732285e-5,"MEAN_MOTION_DOT":1.0e-7,"MEAN_MOTION_DDOT":0},{"OBJECT_NAME":"FENGYUN 1C DEB","OBJECT_ID":"1999-025EEQ","EPOCH":"2026-03-04T07:32:44.635200","MEAN_MOTION":14.50858155,"ECCENTRICITY":0.02656951,"INCLINATION":98.9728,"RA_OF_ASC_NODE":96.1117,"ARG_OF_PERICENTER":260.4903,"MEAN_ANOMALY":96.6174,"EPHEMERIS_TYPE":0,"CLASSIFICATION_TYPE":"U","NORAD_CAT_ID":37056,"ELEMENT_SET_NO":999,"REV_AT_EPOCH":66594,"BSTAR":0.00041717467,"MEAN_MOTION_DOT":2.532e-5,"MEAN_MOTION_DDOT":0}]
